NORAD_CAT_ID,OBJECT_NAME,OBJECT_TYPE,EPOCH,MEAN_MOTION,ECCENTRICITY,INCLINATION,RA_OF_ASC_NODE,ARG_OF_PERICENTER,MEAN_ANOMALY,BSTAR,MEAN_MOTION_DOT,MEAN_MOTION_DDOT,TLE_LINE0,TLE_LINE1,TLE_LINE2,SEMIMAJOR_AXIS,PERIOD,APOGEE,PERIGEE,DECAYED
49134.0,STARLINK-3078,PAYLOAD,2021-12-08 22:00:00,15.28498025,0.0003457,70.0002,248.2974,280.8797,162.7767,-0.025676,-0.00662864,0.0,0 STARLINK-3078,1 49134U 21082E   21342.91667824 -.00662864  00000-0 -25676-1 0  9990,2 49134  70.0002 248.2974 0003457 280.8797 162.7767 15.28498025  3652,6858.439,94.21,482.675,477.9330000000001,0.0
49134.0,STARLINK-3078,PAYLOAD,2021-12-09 06:00:00,15.28028217,0.0003328,69.9997,247.4177,275.7843,201.2479,-0.02583,-0.0065767,0.0,0 STARLINK-3078,1 49134U 21082E   21343.25001157 -.00657670  00000-0 -25830-1 0  9990,2 49134  69.9997 247.4177 0003328 275.7843 201.2479 15.28028217 14754,6859.844,94.239,483.992,479.426,0.0
49134.0,STARLINK-3078,PAYLOAD,2021-12-09 19:38:31,15.28535971,0.0004464,69.9962,245.9087,290.3402,69.7293,-0.0066899,-0.00181966,0.0,0 STARLINK-3078,1 49134U 21082E   21343.81842441 -.00181966  00000-0 -66899-2 0  9992,2 49134  69.9962 245.9087 0004464 290.3402  69.7293 15.28535971 14846,6858.325,94.208,483.252,477.129,0.0
49134.0,STARLINK-3078,PAYLOAD,2021-12-10 14:00:01,15.26156895,0.0003214,69.9999,243.9059,272.4506,332.4768,-0.027252,-0.00655591,0.0,0 STARLINK-3078,1 49134U 21082E   21344.58334491 -.00655591  00000-0 -27252-1 0  9997,2 49134  69.9999 243.9059 0003214 272.4506 332.4768 15.26156895  3657,6865.451,94.355,489.522,485.109,0.0
49134.0,STARLINK-3078,PAYLOAD,2021-12-10 22:00:00,15.25690733,0.0003318,70.0002,243.0297,281.3819,354.1172,-0.027758,-0.00658238,0.0,0 STARLINK-3078,1 49134U 21082E   21344.91667824 -.00658238  00000-0 -27758-1 0  9995,2 49134  70.0002 243.0297 0003318 281.3819 354.1172 15.25690733  3643,6866.849,94.383,490.992,486.436,0.0
49134.0,STARLINK-3078,PAYLOAD,2021-12-11 14:00:01,15.24753199,0.0003327,69.9999,241.2787,271.4581,63.5041,-0.028349,-0.00653873,0.0,0 STARLINK-3078,1 49134U 21082E   21345.58334491 -.00653873  00000-0 -28349-1 0  9997,2 49134  69.9999 241.2787 0003327 271.4581  63.5041 15.24753199 15111,6869.6640000000025,94.442,493.814,489.24300000000005,0.0
49134.0,STARLINK-3078,PAYLOAD,2021-12-11 22:00:00,15.24289065,0.0003438,70.0002,240.4042,280.9128,82.9385,-0.029021,-0.00659702,0.0,0 STARLINK-3078,1 49134U 21082E   21345.91667824 -.00659702  00000-0 -29021-1 0  9998,2 49134  70.0002 240.4042 0003438 280.9128  82.9385 15.24289065  3646,6871.058000000001,94.47,495.285,490.561,0.0
49134.0,STARLINK-3078,PAYLOAD,2021-12-12 14:00:01,15.23351546,0.0003383,69.9999,238.6572,273.0421,146.9084,-0.029636,-0.00655403,0.0,0 STARLINK-3078,1 49134U 21082E   21346.58334491 -.00655403  00000-0 -29636-1 0  9999,2 49134  69.9999 238.6572 0003383 273.0421 146.9084 15.23351546 15264,6873.877,94.528,498.067,493.416,0.0
49134.0,STARLINK-3078,PAYLOAD,2021-12-12 22:00:01,15.22886588,0.0003419,70.0002,237.7846,282.0896,165.1317,-0.030283,-0.00660163,0.0,0 STARLINK-3078,1 49134U 21082E   21346.91668981 -.00660163  00000-0 -30283-1 0  9999,2 49134  70.0002 237.7846 0003419 282.0896 165.1317 15.22886588  3629,6875.276,94.557,499.492,494.79,0.0
49134.0,STARLINK-3078,PAYLOAD,2021-12-13 14:00:01,15.21951164,0.0003243,69.9998,236.0413,273.7879,226.1045,-0.031068,-0.00658848,0.0,0 STARLINK-3078,1 49134U 21082E   21347.58334491 -.00658848  00000-0 -31068-1 0  9998,2 49134  69.9998 236.0413 0003243 273.7879 226.1045 15.21951164 15413,6878.093000000003,94.615,502.18800000000016,497.727,0.0
49134.0,STARLINK-3078,PAYLOAD,2021-12-13 22:00:00,15.21482999,0.0003266,70.0001,235.1704,281.6715,243.7478,-0.031476,-0.00658387,0.0,0 STARLINK-3078,1 49134U 21082E   21347.91667824 -.00658387  00000-0 -31476-1 0  9995,2 49134  70.0001 235.1704 0003266 281.6715 243.7478 15.21482999  3659,6879.504,94.645,503.615,499.122,0.0
49134.0,STARLINK-3078,PAYLOAD,2021-12-14 14:00:01,15.205492,0.0003167,69.9998,233.4308,272.2414,302.548,-0.032424,-0.00659751,0.0,0 STARLINK-3078,1 49134U 21082E   21348.58334491 -.00659751  00000-0 -32424-1 0  9990,2 49134  69.9998 233.4308 0003167 272.2414 302.5480 15.20549200  3648,6882.32,94.703,506.365,502.005,0.0
49134.0,STARLINK-3078,PAYLOAD,2021-12-14 22:00:00,15.20079634,0.0003232,70.0001,232.5619,280.8321,317.8026,-0.032695,-0.0065645,0.0,0 STARLINK-3078,1 49134U 21082E   21348.91667824 -.00656450  00000-0 -32695-1 0  9999,2 49134  70.0001 232.5619 0003232 280.8321 317.8026 15.20079634 15610,6883.736999999999,94.732,507.827,503.377,0.0
49134.0,STARLINK-3078,PAYLOAD,2021-12-15 14:22:36,15.19122219,0.000333,69.9999,230.7853,271.6003,98.7842,-0.033567,-0.00655506,0.0,0 STARLINK-3078,1 49134U 21082E   21349.59902778 -.00655506  00000-0 -33567-1 0  9994,2 49134  69.9999 230.7853 0003330 271.6003  98.7842 15.19122219  3644,6886.629,94.792,510.787,506.201,0.0
49134.0,STARLINK-3078,PAYLOAD,2021-12-15 22:00:01,15.18677511,0.0003262,70.0001,229.959,275.1161,31.7511,-0.03406,-0.0065652,0.0,0 STARLINK-3078,1 49134U 21082E   21349.91668981 -.00656520  00000-0 -34060-1 0  9991,2 49134  70.0001 229.9590 0003262 275.1161  31.7511 15.18677511 15773,6887.973000000001,94.819,512.085,507.592,0.0
49134.0,STARLINK-3078,PAYLOAD,2021-12-16 14:00:01,15.17741539,0.0003309,69.9999,228.227,269.2625,80.1849,-0.034913,-0.00655115,0.0,0 STARLINK-3078,1 49134U 21082E   21350.58334491 -.00655115  00000-0 -34913-1 0  9998,2 49134  69.9999 228.2270 0003309 269.2625  80.1849 15.17741539  3639,6890.805,94.878,514.95,510.39,0.0
49134.0,STARLINK-3078,PAYLOAD,2021-12-16 21:58:00,15.18530952,0.0003058999999999,69.9976,227.3576,250.8722,109.2117,-0.0094035,-0.00189775,0.0,0 STARLINK-3078,1 49134U 21082E   21350.91528548 -.00189775  00000-0 -94035-2 0  9999,2 49134  69.9976 227.3576 0003059 250.8722 109.2117 15.18530952 15921,6888.417,94.828,512.389,508.175,0.0
49134.0,STARLINK-3078,PAYLOAD,2021-12-17 06:00:00,15.16809864,0.000332,69.9999,226.4972,268.5573,121.2895,-0.036169,-0.00667511,0.0,0 STARLINK-3078,1 49134U 21082E   21351.25001157 -.00667511  00000-0 -36169-1 0  9991,2 49134  69.9999 226.4972 0003320 268.5573 121.2895 15.16809864 15978,6893.626,94.936,517.78,513.203,0.0
49134.0,STARLINK-3078,PAYLOAD,2021-12-17 21:42:41,15.17132975,0.0003563,69.9974,224.7936,253.7221,106.3556,-0.0098493,-0.00190928,0.0,0 STARLINK-3078,1 49134U 21082E   21351.90464932 -.00190928  00000-0 -98493-2 0  9999,2 49134  69.9974 224.7936 0003563 253.7221 106.3556 15.17132975 16070,6892.648,94.916,516.9680000000002,512.057,0.0
49134.0,STARLINK-3078,PAYLOAD,2021-12-18 14:00:01,15.14938134,0.0003238,70.0,223.0455,270.829,193.0919,-0.037969,-0.00664513,0.0,0 STARLINK-3078,1 49134U 21082E   21352.58334491 -.00664513  00000-0 -37969-1 0  9996,2 49134  70.0000 223.0455 0003238 270.8290 193.0919 15.14938134 16171,6899.303000000001,95.053,523.4019999999998,518.934,0.0
49134.0,STARLINK-3078,PAYLOAD,2021-12-18 21:28:41,15.15726006,0.0003463,69.9968,222.2321,250.1474,109.9321,-0.010509,-0.00195578,0.0,0 STARLINK-3078,1 49134U 21082E   21352.89492797 -.00195578  00000-0 -10509-1 0  9995,2 49134  69.9968 222.2321 0003463 250.1474 109.9321 15.15726006 16222,6896.9119999999975,95.004,521.1659999999998,516.389,0.0
49134.0,STARLINK-3078,PAYLOAD,2021-12-19 14:00:01,15.1353668,0.0003176,70.0,220.4632,274.5896,238.9992,-0.039603,-0.00666098,0.0,0 STARLINK-3078,1 49134U 21082E   21353.58334491 -.00666098  00000-0 -39603-1 0  9994,2 49134  70.0000 220.4632 0003176 274.5896 238.9992 15.13536680  3639,6903.562,95.141,527.619,523.234,0.0
49134.0,STARLINK-3078,PAYLOAD,2021-12-19 22:00:00,15.13067353,0.0003165,70.0001,219.6037,277.2941,251.7306,-0.039978,-0.00663748,0.0,0 STARLINK-3078,1 49134U 21082E   21353.91667824 -.00663748  00000-0 -39978-1 0  9994,2 49134  70.0001 219.6037 0003165 277.2941 251.7306 15.13067353 16371,6904.989000000001,95.171,529.04,524.669,0.0
49134.0,STARLINK-3078,PAYLOAD,2021-12-20 14:43:24,15.13335242,0.000296,69.9964,217.8,256.6196,103.4641,-0.010069,-0.00175647,0.0,0 STARLINK-3078,1 49134U 21082E   21354.61347994 -.00175647  00000-0 -10069-1 0  9991,2 49134  69.9964 217.8000 0002960 256.6196 103.4641 15.13335242 16483,6904.174,95.154,528.0830000000002,523.996,0.0
49134.0,STARLINK-3078,PAYLOAD,2021-12-20 22:00:01,15.11664056,0.0003104,70.0001,217.0286,275.6572,296.3716,-0.041475,-0.00662204,0.0,0 STARLINK-3078,1 49134U 21082E   21354.91668981 -.00662204  00000-0 -41475-1 0  9991,2 49134  70.0001 217.0286 0003104 275.6572 296.3716 15.11664056 16522,6909.262,95.259,533.271,528.982,0.0
49134.0,STARLINK-3078,PAYLOAD,2021-12-21 14:00:01,15.10731745,0.0003109,70.0,215.3152,270.8675,326.921,-0.042811,-0.00665818,0.0,0 STARLINK-3078,1 49134U 21082E   21355.58334491 -.00665818  00000-0 -42811-1 0  9990,2 49134  70.0000 215.3152 0003109 270.8675 326.9210 15.10731745  3625,6912.104,95.318,536.118,531.82,0.0
49134.0,STARLINK-3078,PAYLOAD,2021-12-21 22:00:00,15.10261473,0.0003112,70.0001,214.4593,274.2134,335.6475,-0.043085,-0.00661687,0.0,0 STARLINK-3078,1 49134U 21082E   21355.91667824 -.00661687  00000-0 -43085-1 0  9990,2 49134  70.0001 214.4593 0003112 274.2134 335.6475 15.10261473  3623,6913.5390000000025,95.348,537.555,533.252,0.0
49134.0,STARLINK-3078,PAYLOAD,2021-12-22 06:00:00,15.0979665,0.0003166,69.9998,213.6041,262.04900000000004,359.3213,-0.043943,-0.00665979,0.0,0 STARLINK-3078,1 49134U 21082E   21356.25001157 -.00665979  00000-0 -43943-1 0  9990,2 49134  69.9998 213.6041 0003166 262.0490 359.3213 15.09796650 16730,6914.958000000001,95.377,539.012,534.634,0.0
49134.0,STARLINK-3078,PAYLOAD,2021-12-22 14:00:01,15.09328691,0.0003133,70.0,212.7496,270.1357,2.1843,-0.044415,-0.00664601,0.0,0 STARLINK-3078,1 49134U 21082E   21356.58334491 -.00664601  00000-0 -44415-1 0  9992,2 49134  70.0000 212.7496 0003133 270.1357   2.1843 15.09328691  3629,6916.387,95.407,540.419,536.085,0.0
